{
  "type": "FeatureCollection",
  "features": [
    {
      "type": "Feature",
      "properties": {
        "norad_id": 65731,
        "name": "1998-067XK",
        "group": "stations",
        "lat": 20.365074563254826,
        "lon": -52.537554602967596,
        "alt_km": 369.51867381283864,
        "timestamp": "2025-12-11T07:02:22.498648+00:00",
        "meta_object_name": "1998-067XK",
        "meta_object_id": "1998-067XK",
        "meta_epoch": "2025-12-10T11:59:54.530016",
        "meta_mean_motion": 15.65134348,
        "meta_eccentricity": 0.00051808,
        "meta_inclination": 51.6281,
        "meta_ra_of_asc_node": 148.5918,
        "meta_arg_of_pericenter": 231.8122,
        "meta_mean_anomaly": 128.2407,
        "meta_ephemeris_type": 0,
        "meta_classification_type": "U",
        "meta_norad_cat_id": 65731,
        "meta_element_set_no": 999,
        "meta_rev_at_epoch": 1279,
        "meta_bstar": 0.0012258975,
        "meta_mean_motion_dot": 0.00124892,
        "meta_mean_motion_ddot": 0,
        "tle_line1": "1 65731U 98067XK  25344.49993669  .00124892  00000+0  12259-2 0  9991",
        "tle_line2": "2 65731  51.6281 148.5918 0005180 231.8122 128.2407 15.65134348 12799"
      },
      "geometry": {
        "type": "Point",
        "coordinates": [
          -52.537554602967596,
          20.365074563254826
        ]
      }
    },
    {
      "type": "Feature",
      "properties": {
        "norad_id": 65732,
        "name": "RSP-03",
        "group": "stations",
        "lat": 46.90831700860293,
        "lon": -93.99407576779015,
        "alt_km": 360.3675213340539,
        "timestamp": "2025-12-11T07:02:22.498676+00:00",
        "meta_object_name": "RSP-03",
        "meta_object_id": "1998-067XL",
        "meta_epoch": "2025-12-10T19:51:35.371008",
        "meta_mean_motion": 15.67939317,
        "meta_eccentricity": 0.00058921,
        "meta_inclination": 51.6264,
        "meta_ra_of_asc_node": 146.2697,
        "meta_arg_of_pericenter": 237.5222,
        "meta_mean_anomaly": 122.5205,
        "meta_ephemeris_type": 0,
        "meta_classification_type": "U",
        "meta_norad_cat_id": 65732,
        "meta_element_set_no": 999,
        "meta_rev_at_epoch": 1286,
        "meta_bstar": 0.0014115641,
        "meta_mean_motion_dot": 0.00161929,
        "meta_mean_motion_ddot": 0,
        "tle_line1": "1 65732U 98067XL  25344.82749272  .00161929  00000+0  14116-2 0  9994",
        "tle_line2": "2 65732  51.6264 146.2697 0005892 237.5222 122.5205 15.67939317 12866"
      },
      "geometry": {
        "type": "Point",
        "coordinates": [
          -93.99407576779015,
          46.90831700860293
        ]
      }
    },
    {
      "type": "Feature",
      "properties": {
        "norad_id": 65733,
        "name": "GHS-01",
        "group": "stations",
        "lat": -2.228947472364273,
        "lon": 140.86613069120102,
        "alt_km": 348.4878625379688,
        "timestamp": "2025-12-11T07:02:22.498689+00:00",
        "meta_object_name": "GHS-01",
        "meta_object_id": "1998-067XM",
        "meta_epoch": "2025-12-10T20:23:03.748416",
        "meta_mean_motion": 15.73741766,
        "meta_eccentricity": 0.00069893,
        "meta_inclination": 51.6283,
        "meta_ra_of_asc_node": 144.9143,
        "meta_arg_of_pericenter": 267.0937,
        "meta_mean_anomaly": 92.9262,
        "meta_ephemeris_type": 0,
        "meta_classification_type": "U",
        "meta_norad_cat_id": 65733,
        "meta_element_set_no": 999,
        "meta_rev_at_epoch": 1288,
        "meta_bstar": 0.0017131141,
        "meta_mean_motion_dot": 0.00253707,
        "meta_mean_motion_ddot": 0,
        "tle_line1": "1 65733U 98067XM  25344.84934894  .00253707  00000+0  17131-2 0  9999",
        "tle_line2": "2 65733  51.6283 144.9143 0006989 267.0937  92.9262 15.73741766 12889"
      },
      "geometry": {
        "type": "Point",
        "coordinates": [
          140.86613069120102,
          -2.228947472364273
        ]
      }
    },
    {
      "type": "Feature",
      "properties": {
        "norad_id": 65941,
        "name": "YOTSUBA-KULOVER",
        "group": "stations",
        "lat": -38.69143363922275,
        "lon": 107.85527279512873,
        "alt_km": 393.86953215777976,
        "timestamp": "2025-12-11T07:02:22.498702+00:00",
        "meta_object_name": "YOTSUBA-KULOVER",
        "meta_object_id": "1998-067XN",
        "meta_epoch": "2025-12-10T11:16:03.070272",
        "meta_mean_motion": 15.59021065,
        "meta_eccentricity": 0.00015507,
        "meta_inclination": 51.6286,
        "meta_ra_of_asc_node": 151.3857,
        "meta_arg_of_pericenter": 232.2961,
        "meta_mean_anomaly": 127.7891,
        "meta_ephemeris_type": 0,
        "meta_classification_type": "U",
        "meta_norad_cat_id": 65941,
        "meta_element_set_no": 999,
        "meta_rev_at_epoch": 950,
        "meta_bstar": 0.0011321165,
        "meta_mean_motion_dot": 0.00090413,
        "meta_mean_motion_ddot": 0,
        "tle_line1": "1 65941U 98067XN  25344.46947998  .00090413  00000+0  11321-2 0  9995",
        "tle_line2": "2 65941  51.6286 151.3857 0001550 232.2961 127.7891 15.59021065  9504"
      },
      "geometry": {
        "type": "Point",
        "coordinates": [
          107.85527279512873,
          -38.69143363922275
        ]
      }
    },
    {
      "type": "Feature",
      "properties": {
        "norad_id": 65942,
        "name": "BOTAN",
        "group": "stations",
        "lat": -50.11756361578683,
        "lon": 38.08391487441256,
        "alt_km": 383.3151855130109,
        "timestamp": "2025-12-11T07:02:22.498713+00:00",
        "meta_object_name": "BOTAN",
        "meta_object_id": "1998-067XP",
        "meta_epoch": "2025-12-10T11:31:01.401312",
        "meta_mean_motion": 15.62212709,
        "meta_eccentricity": 0.00033822,
        "meta_inclination": 51.6281,
        "meta_ra_of_asc_node": 150.7055,
        "meta_arg_of_pericenter": 220.3642,
        "meta_mean_anomaly": 139.7102,
        "meta_ephemeris_type": 0,
        "meta_classification_type": "U",
        "meta_norad_cat_id": 65942,
        "meta_element_set_no": 999,
        "meta_rev_at_epoch": 951,
        "meta_bstar": 0.0015087728,
        "meta_mean_motion_dot": 0.00137252,
        "meta_mean_motion_ddot": 0,
        "tle_line1": "1 65942U 98067XP  25344.47987733  .00137252  00000+0  15088-2 0  9995",
        "tle_line2": "2 65942  51.6281 150.7055 0003382 220.3642 139.7102 15.62212709  9512"
      },
      "geometry": {
        "type": "Point",
        "coordinates": [
          38.08391487441256,
          -50.11756361578683
        ]
      }
    },
    {
      "type": "Feature",
      "properties": {
        "norad_id": 65943,
        "name": "E-KAGAKU-1",
        "group": "stations",
        "lat": -38.60840017412932,
        "lon": 107.99042145755517,
        "alt_km": 395.40681884940204,
        "timestamp": "2025-12-11T07:02:22.498724+00:00",
        "meta_object_name": "E-KAGAKU-1",
        "meta_object_id": "1998-067XQ",
        "meta_epoch": "2025-12-10T06:39:08.237952",
        "meta_mean_motion": 15.5900432,
        "meta_eccentricity": 0.00052507,
        "meta_inclination": 51.6298,
        "meta_ra_of_asc_node": 152.3458,
        "meta_arg_of_pericenter": 191.2269,
        "meta_mean_anomaly": 168.8608,
        "meta_ephemeris_type": 0,
        "meta_classification_type": "U",
        "meta_norad_cat_id": 65943,
        "meta_element_set_no": 999,
        "meta_rev_at_epoch": 947,
        "meta_bstar": 0.0012588803,
        "meta_mean_motion_dot": 0.00100705,
        "meta_mean_motion_ddot": 0,
        "tle_line1": "1 65943U 98067XQ  25344.27717868  .00100705  00000+0  12589-2 0  9990",
        "tle_line2": "2 65943  51.6298 152.3458 0005250 191.2269 168.8608 15.59004320  9476"
      },
      "geometry": {
        "type": "Point",
        "coordinates": [
          107.99042145755517,
          -38.60840017412932
        ]
      }
    },
    {
      "type": "Feature",
      "properties": {
        "norad_id": 66052,
        "name": "HRC MONOBLOCK CAMERA",
        "group": "stations",
        "lat": -31.39134215768897,
        "lon": 119.80479469266756,
        "alt_km": 410.7727911424099,
        "timestamp": "2025-12-11T07:02:22.498734+00:00",
        "meta_object_name": "HRC MONOBLOCK CAMERA",
        "meta_object_id": "1998-067XR",
        "meta_epoch": "2025-12-10T21:57:28.117728",
        "meta_mean_motion": 15.5393345,
        "meta_eccentricity": 0.00035533,
        "meta_inclination": 51.629,
        "meta_ra_of_asc_node": 150.6048,
        "meta_arg_of_pericenter": 175.8919,
        "meta_mean_anomaly": 184.2101,
        "meta_ephemeris_type": 0,
        "meta_classification_type": "U",
        "meta_norad_cat_id": 66052,
        "meta_element_set_no": 999,
        "meta_rev_at_epoch": 855,
        "meta_bstar": 0.00075829554,
        "meta_mean_motion_dot": 0.00049683,
        "meta_mean_motion_ddot": 0,
        "tle_line1": "1 66052U 98067XR  25344.91490877  .00049683  00000+0  75830-3 0  9997",
        "tle_line2": "2 66052  51.6290 150.6048 0003553 175.8919 184.2101 15.53933450  8557"
      },
      "geometry": {
        "type": "Point",
        "coordinates": [
          119.80479469266756,
          -31.39134215768897
        ]
      }
    }
  ]
}